KUZGTU 1 (RS47S)        
1 57217U 23091AV  26195.95734650  .00006642  00000+0  22782-3 0  9990
2 57217  97.5052 260.7296 0010103   7.1264 353.0118 15.30466943168624
SONATE-2                
1 59112U 24043Q   26195.91695440  .00026333  00000+0  31661-3 0  9998
2 59112  97.5555 348.0623 0006861 107.6179 252.5828 15.60812802132218
MESAT1                  
1 60209U 24125G   26195.60457834  .00045892  00000+0  44113-3 0  9994
2 60209  97.2247  53.7705 0010926 114.2072 246.0332 15.66383054113851
OOV-CUBE (TUBSAT-30)    
1 60240U 24128F   26195.93437452  .00001000  00000+0  88744-4 0  9994
2 60240  61.9937 128.8119 0041150 139.9760 220.4377 15.02873276110283
COLIBRI-S (RS67S)       
1 61746U 24199M   26195.91717366  .00013466  00000+0  25150-3 0  9997
2 61746  97.2951  70.0409 0008964 163.1632 196.9918 15.48842054141705
HORS 3 (RS81S)          
1 61753U 24199U   26195.93658835  .00025636  00000+0  35713-3 0  9990
2 61753  97.2933  72.3634 0007151 156.7646 203.3934 15.56892158141876
HORS 4 (RS82S)          
1 61754U 24199V   26195.93514465  .00034850  00000+0  39386-3 0  9999
2 61754  97.2875  73.7576 0007004 149.1340 211.0331 15.62365525141974
SIT-2086                
1 61764U 24199AF  26195.94856703  .00025421  00000+0  37942-3 0  9995
2 61764  97.2888  72.7559 0008233 145.1989 214.9805 15.55005879138743
HYPERVIEW 1G (RS66S)    
1 61772U 24199AP  26195.92552573  .00161458  00000+0  67217-3 0  9999
2 61772  97.2802  77.2230 0008275 149.3706 210.8049 15.85243497139056
ALTAIR (RS65S)          
1 61779U 24199AW  26195.90652099  .00006490  00000+0  17826-3 0  9993
2 61779  97.2992  65.0791 0011993 197.5567 162.5265 15.37502551141378
ASRTU-1 (AO-123)        
1 61781U 24199AY  26195.91974614  .00004389  00000+0  12702-3 0  9990
2 61781  97.2963  64.3427 0012975 201.6946 158.3750 15.36051223138187
SAMSAT-IONOSPHERE (RS7*)
1 61784U 24199BB  26195.91853508  .00031128  00000+0  38365-3 0  9995
2 61784  97.2898  72.5029 0009214 161.2123 198.9476 15.60103170141888
RTU MIREA 1 (RS51S)     
1 61785U 24199BC  26195.93967617  .00043593  00000+0  45659-3 0  9998
2 61785  97.2883  73.5126 0009300 155.8674 204.3023 15.64250511138802
TEVEL2-4                
1 63213U 25052D   26195.69012354  .00010349  00000+0  30168-3 0  9999
2 63213  97.3873  92.1411 0003581  52.7606 307.3964 15.35555371 74334
TEVEL2-5                
1 63214U 25052E   26195.71383550  .00010851  00000+0  31806-3 0  9990
2 63214  97.3870  92.1047 0003638  54.2454 305.9128 15.35369597 74337
TEVEL2-6                
1 63215U 25052F   26195.66162234  .00010923  00000+0  32054-3 0  9995
2 63215  97.3876  92.0373 0003680  56.3552 303.8042 15.35331616 74326
TEVEL2-1                
1 63217U 25052H   26195.63531658  .00009885  00000+0  29557-3 0  9993
2 63217  97.3847  91.6018 0004319  61.6960 298.4718 15.34761887 74302
TEVEL2-3                
1 63218U 25052J   26195.69409510  .00009878  00000+0  29479-3 0  9996
2 63218  97.3851  91.6861 0004049  62.6688 297.4967 15.34825600 74312
TEVEL2-2                
1 63219U 25052K   26195.96143933  .00010174  00000+0  30398-3 0  9994
2 63219  97.3841  91.9311 0004337  61.0263 299.1415 15.34779518 74354
OTP-2                   
1 63235U 25052AB  26195.93211978  .00003753  00000+0  15620-3 0  9990
2 63235  97.3836  87.9499 0008217  71.7464 288.4667 15.24335037 74094
TEVEL2-9                
1 63237U 25052AD  26195.64897023  .00009574  00000+0  30513-3 0  9996
2 63237  97.3910  90.9324 0007719  58.9177 301.2822 15.32721747 74233
TEVEL2-7                
1 63238U 25052AE  26195.69534027  .00009140  00000+0  29430-3 0  9999
2 63238  97.3908  90.8827 0007785  58.0835 302.1163 15.32406537 74238
TEVEL2-8                
1 63239U 25052AF  26195.70385767  .00009092  00000+0  29291-3 0  9998
2 63239  97.3909  90.8675 0007827  59.1574 301.0437 15.32392229 74234
INNOSAT 16 (RS92S7)     
1 64878U 25155C   26195.94340347  .00003169  00000+0  12689-3 0  9995
2 64878  97.4582 162.9910 0012480  89.1954 271.0714 15.25736972 84909
GEOSCAN 6 (RS92S6)      
1 64879U 25155D   26195.90444321  .00005870  00000+0  20048-3 0  9998
2 64879  97.4571 164.5763 0009956  83.0378 277.1995 15.30651191 85004
GEOSCAN 1 (RS92S1)      
1 64880U 25155E   26195.96096458  .00006342  00000+0  21211-3 0  9998
2 64880  97.4568 164.8062 0009899  83.0616 277.1751 15.31299388 85027
239ALFEROV (RS61S)      
1 64881U 25155F   26195.88934514  .00008272  00000+0  25624-3 0  9990
2 64881  97.4566 165.3923 0009606  82.9903 277.2432 15.33664621 85059
GEOSCAN 2 (RS92S2)      
1 64890U 25155Q   26195.94987736  .00006354  00000+0  21087-3 0  9999
2 64890  97.4567 164.9583 0009063  73.2624 286.9611 15.31557032 85036
GEOSCAN 5 (RS92S5)      
1 64891U 25155R   26195.93795581  .00008489  00000+0  26045-3 0  9994
2 64891  97.4558 165.5893 0008651  87.3377 272.8856 15.33971527 85071
GEOSCAN 4 (RS92S4)      
1 64892U 25155S   26195.91924655  .00008529  00000+0  26029-3 0  9996
2 64892  97.4562 165.6271 0008566  87.6368 272.5855 15.34138955 85073
