OBJECT_NAME,OBJECT_ID,EPOCH,MEAN_MOTION,ECCENTRICITY,INCLINATION,RA_OF_ASC_NODE,ARG_OF_PERICENTER,MEAN_ANOMALY,EPHEMERIS_TYPE,CLASSIFICATION_TYPE,NORAD_CAT_ID,ELEMENT_SET_NO,REV_AT_EPOCH,BSTAR,MEAN_MOTION_DOT,MEAN_MOTION_DDOT
KUZGTU 1 (RS47S),2023-091AV,2026-07-14T22:58:34.737600,15.30466943,.00101035,97.5052,260.7296,7.1264,353.0118,0,U,57217,999,16862,.22782456E-3,.6642E-4,0
SONATE-2,2024-043Q,2026-07-14T22:00:24.860160,15.60812802,.00068614,97.5555,348.0623,107.6179,252.5828,0,U,59112,999,13221,.31661013E-3,.26333E-3,0
MESAT1,2024-125G,2026-07-14T14:30:35.568576,15.66383054,.0010926,97.2247,53.7705,114.2072,246.0332,0,U,60209,999,11385,.44113E-3,.45892E-3,0
OOV-CUBE (TUBSAT-30),2024-128F,2026-07-14T22:25:29.958528,15.02873276,.004115,61.9937,128.8119,139.9760,220.4377,0,U,60240,999,11028,.88744455E-4,.1E-4,0
COLIBRI-S (RS67S),2024-199M,2026-07-14T22:00:43.804224,15.48842054,.0008964,97.2951,70.0409,163.1632,196.9918,0,U,61746,999,14170,.25149562E-3,.13466E-3,0
HORS 3 (RS81S),2024-199U,2026-07-14T22:28:41.233440,15.56892158,.00071515,97.2933,72.3634,156.7646,203.3934,0,U,61753,999,14187,.35713222E-3,.25636E-3,0
HORS 4 (RS82S),2024-199V,2026-07-14T22:26:36.497760,15.62365525,.00070049,97.2875,73.7576,149.1340,211.0331,0,U,61754,999,14197,.39386467E-3,.3485E-3,0
SIT-2086,2024-199AF,2026-07-14T22:45:56.191392,15.55005879,.00082337,97.2888,72.7559,145.1989,214.9805,0,U,61764,999,13874,.37942409E-3,.25421E-3,0
HYPERVIEW 1G (RS66S),2024-199AP,2026-07-14T22:12:45.423072,15.85243497,.00082759,97.2802,77.2230,149.3706,210.8049,0,U,61772,999,13905,.67217023E-3,.161458E-2,0
ALTAIR (RS65S),2024-199AW,2026-07-14T21:45:23.413536,15.37502551,.00119934,97.2992,65.0791,197.5567,162.5265,0,U,61779,999,14137,.17826479E-3,.649E-4,0
ASRTU-1 (AO-123),2024-199AY,2026-07-14T22:04:26.066496,15.36051223,.00129756,97.2963,64.3427,201.6946,158.3750,0,U,61781,999,13818,.12702291E-3,.4389E-4,0
SAMSAT-IONOSPHERE (RS75S),2024-199BB,2026-07-14T22:02:41.430912,15.60103170,.0009214,97.2898,72.5029,161.2123,198.9476,0,U,61784,999,14188,.38364714E-3,.31128E-3,0
RTU MIREA 1 (RS51S),2024-199BC,2026-07-14T22:33:08.021088,15.64250511,.00093,97.2883,73.5126,155.8674,204.3023,0,U,61785,999,13880,.4565876E-3,.43593E-3,0
TEVEL2-4,2025-052D,2026-07-14T16:33:46.673856,15.35555371,.00035815,97.3873,92.1411,52.7606,307.3964,0,U,63213,999,7433,.30168399E-3,.10349E-3,0
TEVEL2-5,2025-052E,2026-07-14T17:07:55.387200,15.35369597,.00036386,97.3870,92.1047,54.2454,305.9128,0,U,63214,999,7433,.31805601E-3,.10851E-3,0
TEVEL2-6,2025-052F,2026-07-14T15:52:44.170176,15.35331616,.00036805,97.3876,92.0373,56.3552,303.8042,0,U,63215,999,7432,.32053588E-3,.10923E-3,0
TEVEL2-1,2025-052H,2026-07-14T15:14:51.352512,15.34761887,.0004319,97.3847,91.6018,61.6960,298.4718,0,U,63217,999,7430,.2955724E-3,.9885E-4,0
TEVEL2-3,2025-052J,2026-07-14T16:39:29.816640,15.34825600,.00040492,97.3851,91.6861,62.6688,297.4967,0,U,63218,999,7431,.29478969E-3,.9878E-4,0
TEVEL2-2,2025-052K,2026-07-14T23:04:28.358112,15.34779518,.00043376,97.3841,91.9311,61.0263,299.1415,0,U,63219,999,7435,.30398313E-3,.10174E-3,0
OTP-2,2025-052AB,2026-07-14T22:22:15.148992,15.24335037,.00082178,97.3836,87.9499,71.7464,288.4667,0,U,63235,999,7409,.15619743E-3,.3753E-4,0
TEVEL2-9,2025-052AD,2026-07-14T15:34:31.027872,15.32721747,.00077199,97.3910,90.9324,58.9177,301.2822,0,U,63237,999,7423,.30513311E-3,.9574E-4,0
TEVEL2-7,2025-052AE,2026-07-14T16:41:17.399328,15.32406537,.00077856,97.3908,90.8827,58.0835,302.1163,0,U,63238,999,7423,.29429637E-3,.914E-4,0
TEVEL2-8,2025-052AF,2026-07-14T16:53:33.302688,15.32392229,.0007827,97.3909,90.8675,59.1574,301.0437,0,U,63239,999,7423,.29290815E-3,.9092E-4,0
INNOSAT 16 (RS92S7),2025-155C,2026-07-14T22:38:30.059808,15.25736972,.001248,97.4582,162.9910,89.1954,271.0714,0,U,64878,999,8490,.12689223E-3,.3169E-4,0
GEOSCAN 6 (RS92S6),2025-155D,2026-07-14T21:42:23.893344,15.30651191,.00099565,97.4571,164.5763,83.0378,277.1995,0,U,64879,999,8500,.20047975E-3,.587E-4,0
GEOSCAN 1 (RS92S1),2025-155E,2026-07-14T23:03:47.339712,15.31299388,.00098999,97.4568,164.8062,83.0616,277.1751,0,U,64880,999,8502,.21211408E-3,.6342E-4,0
239ALFEROV (RS61S),2025-155F,2026-07-14T21:20:39.420096,15.33664621,.00096062,97.4566,165.3923,82.9903,277.2432,0,U,64881,999,8505,.25623587E-3,.8272E-4,0
GEOSCAN 2 (RS92S2),2025-155Q,2026-07-14T22:47:49.403904,15.31557032,.00090638,97.4567,164.9583,73.2624,286.9611,0,U,64890,999,8503,.21086755E-3,.6354E-4,0
GEOSCAN 5 (RS92S5),2025-155R,2026-07-14T22:30:39.381984,15.33971527,.00086511,97.4558,165.5893,87.3377,272.8856,0,U,64891,999,8507,.26044533E-3,.8489E-4,0
GEOSCAN 4 (RS92S4),2025-155S,2026-07-14T22:03:42.901920,15.34138955,.00085665,97.4562,165.6271,87.6368,272.5855,0,U,64892,999,8507,.26028579E-3,.8529E-4,0
